{
  
  "maker":[
    {
        "id": 91,
        "fname": "Kerrissa",
        "lname": "Ventura",
        "tel": "(135)663-6592",
        "address": "8754 Lorem Ave",
        "city": "Milwaukee",
        "state": "NE",
        "zip": 93870
    },
    {
        "id": 92,
        "fname": "Harold",
        "lname": "Cardenas",
        "tel": "(789)592-1535",
        "address": "3100 Consequat Dr",
        "city": "Hillsboro",
        "state": "NY",
        "zip": 91735
    },
    {
        "id": 93,
        "fname": "Richelle",
        "lname": "Marton",
        "tel": "(242)904-0699",
        "address": "3067 Vestibulum Ct",
        "city": "Danbury",
        "state": "TN",
        "zip": 82456
    },
    {
        "id": 94,
        "fname": "Mallika",
        "lname": "Primavera",
        "tel": "(181)900-0970",
        "address": "1274 Nec Ct",
        "city": "St. Paul",
        "state": "ND",
        "zip": 61535
    },
    {
        "id": 95,
        "fname": "Johanan",
        "lname": "Sluka",
        "tel": "(803)290-1584",
        "address": "6179 Sollicitudin Ave",
        "city": "Vero Beach",
        "state": "OK",
        "zip": 56087
    },
    {
        "id": 96,
        "fname": "Corretta",
        "lname": "Nunez",
        "tel": "(984)982-3543",
        "address": "3505 Sit Ave",
        "city": "Warwick",
        "state": "SD",
        "zip": 17987
    },
    {
        "id": 97,
        "fname": "Amit",
        "lname": "Pitzel",
        "tel": "(662)100-7989",
        "address": "873 Tincidunt Dr",
        "city": "Augusta",
        "state": "SD",
        "zip": 31996
    },
    {
        "id": 98,
        "fname": "Tiffany",
        "lname": "Ahn",
        "tel": "(389)101-3329",
        "address": "3715 Adipiscing Rd",
        "city": "Vienna",
        "state": "FL",
        "zip": 31224
    }
]
}